{
    "links": {
        "self": "http://www.neowsapp.com/rest/v1/neo/3449116?api_key=iIulBulltgU6a56xZRHN4H3l9WmuAYTsLGpBGhQ2"
    },
    "id": "3449116",
    "neo_reference_id": "3449116",
    "name": "(2009 ER)",
    "designation": "2009 ER",
    "nasa_jpl_url": "http://ssd.jpl.nasa.gov/sbdb.cgi?sstr=3449116",
    "absolute_magnitude_h": 25.0,
    "estimated_diameter": {
        "kilometers": {
            "estimated_diameter_min": 0.02658,
            "estimated_diameter_max": 0.0594346868
        },
        "meters": {
            "estimated_diameter_min": 26.58,
            "estimated_diameter_max": 59.4346868419
        },
        "miles": {
            "estimated_diameter_min": 0.0165160412,
            "estimated_diameter_max": 0.0369309908
        },
        "feet": {
            "estimated_diameter_min": 87.2047272,
            "estimated_diameter_max": 194.9956979785
        }
    },
    "is_potentially_hazardous_asteroid": false,
    "close_approach_data": [
        {
            "close_approach_date": "1951-12-25",
            "close_approach_date_full": "1951-Dec-25 14:43",
            "epoch_date_close_approach": -568631820000,
            "relative_velocity": {
                "kilometers_per_second": "17.7317432717",
                "kilometers_per_hour": "63834.2757782442",
                "miles_per_hour": "39664.1365245429"
            },
            "miss_distance": {
                "astronomical": "0.391005421",
                "lunar": "152.101108769",
                "kilometers": "58493578.14005327",
                "miles": "36346224.059424326"
            },
            "orbiting_body": "Earth"
        },
        {
            "close_approach_date": "2009-03-03",
            "close_approach_date_full": "2009-Mar-03 00:19",
            "epoch_date_close_approach": 1236039540000,
            "relative_velocity": {
                "kilometers_per_second": "6.897071737",
                "kilometers_per_hour": "24829.4582530258",
                "miles_per_hour": "15428.059768387"
            },
            "miss_distance": {
                "astronomical": "0.0331747184",
                "lunar": "12.9049654576",
                "kilometers": "4962867.210489808",
                "miles": "3083782.6876950304"
            },
            "orbiting_body": "Earth"
        }
    ],
    "orbital_data": {
        "orbit_id": "8",
        "orbit_determination_date": "2017-04-06 09:01:08",
        "first_observation_date": "2009-03-02",
        "last_observation_date": "2009-03-16",
        "data_arc_in_days": 14,
        "observations_used": 32,
        "orbit_uncertainty": "8",
        "minimum_orbit_intersection": ".0287191",
        "jupiter_tisserand_invariant": "3.811",
        "epoch_osculation": "2454894.5",
        "eccentricity": ".4692686883178951",
        "semi_major_axis": "1.892957150449058",
        "inclination": "4.446928118397051",
        "ascending_node_longitude": "350.1343412526404",
        "orbital_period": "951.2827065689809",
        "perihelion_distance": "1.004651631415848",
        "perihelion_argument": "154.0494996210477",
        "aphelion_distance": "2.781262669482268",
        "perihelion_time": "2454878.617799287179",
        "mean_anomaly": "6.010402814151186",
        "mean_motion": ".3784363969975051",
        "equinox": "J2000",
        "orbit_class": {
            "orbit_class_type": "APO",
            "orbit_class_description": "Near-Earth asteroid orbits which cross the Earth’s orbit similar to that of 1862 Apollo",
            "orbit_class_range": "a (semi-major axis) > 1.0 AU; q (perihelion) < 1.017 AU"
        }
    },
    "is_sentry_object": false
}